[{"OBJECT_NAME":"STARLINK-1361","OBJECT_ID":"2020-025AN","EPOCH":"2026-03-09T22:44:55.848768","MEAN_MOTION":15.47742463,"ECCENTRICITY":0.00077177,"INCLINATION":53.0509,"RA_OF_ASC_NODE":72.6747,"ARG_OF_PERICENTER":32.9629,"MEAN_ANOMALY":327.1858,"EPHEMERIS_TYPE":0,"CLASSIFICATION_TYPE":"U","NORAD_CAT_ID":45567,"ELEMENT_SET_NO":999,"REV_AT_EPOCH":32559,"BSTAR":0.0019136745,"MEAN_MOTION_DOT":0.00101742,"MEAN_MOTION_DDOT":0},{"OBJECT_NAME":"OBJECT C","OBJECT_ID":"2023-003C","EPOCH":"2026-03-09T22:53:37.568256","MEAN_MOTION":15.5121963,"ECCENTRICITY":0.00046458,"INCLINATION":97.1598,"RA_OF_ASC_NODE":145.7069,"ARG_OF_PERICENTER":126.2552,"MEAN_ANOMALY":233.9131,"EPHEMERIS_TYPE":0,"CLASSIFICATION_TYPE":"U","NORAD_CAT_ID":55135,"ELEMENT_SET_NO":999,"REV_AT_EPOCH":17687,"BSTAR":0.00045849142,"MEAN_MOTION_DOT":0.00026795,"MEAN_MOTION_DDOT":0}]
